[
    {
        "Altitude(m)": 607911.0257708802,
        "Argument of Periapsis(deg)": 0.0,
        "Eccentricity": 0.0,
        "Inclination(deg)": 60.0,
        "Latitude(deg)": -14.293038572066658,
        "Longitude(deg)": -86.5573493758169,
        "Mean Anomaly(deg)": -163.6364,
        "RAAN(deg)": 184.99999999999997,
        "Satellite Name": "Test1 826",
        "Satellite Number": 826,
        "Semi-Major Axis(m)": 6980739.136638005,
        "Time(s)": 0
    },
    {
        "Altitude(m)": 608060.259922802,
        "Argument of Periapsis(deg)": 0.00010418945913296404,
        "Eccentricity": 0.0,
        "Inclination(deg)": 60.0,
        "Latitude(deg)": -14.826699905468631,
        "Longitude(deg)": -86.2687396902729,
        "Mean Anomaly(deg)": -163.01629385453816,
        "RAAN(deg)": 184.99957995086024,
        "Satellite Name": "Test1 826",
        "Satellite Number": 826,
        "Semi-Major Axis(m)": 6980739.136638005,
        "Time(s)": 10
    },
    {
        "Altitude(m)": 608211.9242730815,
        "Argument of Periapsis(deg)": 0.0002083789182659281,
        "Eccentricity": 0.0,
        "Inclination(deg)": 60.0,
        "Latitude(deg)": -15.359845016607986,
        "Longitude(deg)": -85.97852120388134,
        "Mean Anomaly(deg)": -162.39618770907634,
        "RAAN(deg)": 184.99915990172053,
        "Satellite Name": "Test1 826",
        "Satellite Number": 826,
        "Semi-Major Axis(m)": 6980739.136638005,
        "Time(s)": 20
    },
    {
        "Altitude(m)": 608365.970740062,
        "Argument of Periapsis(deg)": 0.00031256837739889213,
        "Eccentricity": 0.0,
        "Inclination(deg)": 60.0,
        "Latitude(deg)": -15.892452696288508,
        "Longitude(deg)": -85.68662644900351,
        "Mean Anomaly(deg)": -161.77608156361453,
        "RAAN(deg)": 184.99873985258077,
        "Satellite Name": "Test1 826",
        "Satellite Number": 826,
        "Semi-Major Axis(m)": 6980739.136638005,
        "Time(s)": 30
    },
    {
        "Altitude(m)": 608522.3500445376,
        "Argument of Periapsis(deg)": 0.0004167578365318562,
        "Eccentricity": 0.0,
        "Inclination(deg)": 60.0,
        "Latitude(deg)": -16.424501403051824,
        "Longitude(deg)": -85.39298643898222,
        "Mean Anomaly(deg)": -161.1559754181527,
        "RAAN(deg)": 184.998319803441,
        "Satellite Name": "Test1 826",
        "Satellite Number": 826,
        "Semi-Major Axis(m)": 6980739.136638005,
        "Time(s)": 40
    },
    {
        "Altitude(m)": 608681.0117310914,
        "Argument of Periapsis(deg)": 0.0005209472956648203,
        "Eccentricity": 0.0,
        "Inclination(deg)": 60.0,
        "Latitude(deg)": -16.955969247156446,
        "Longitude(deg)": -85.09753163281361,
        "Mean Anomaly(deg)": -160.53586927269086,
        "RAAN(deg)": 184.99789975430127,
        "Satellite Name": "Test1 826",
        "Satellite Number": 826,
        "Semi-Major Axis(m)": 6980739.136638005,
        "Time(s)": 50
    },
    {
        "Altitude(m)": 608841.9041899429,
        "Argument of Periapsis(deg)": 0.0006251367547977843,
        "Eccentricity": 0.0,
        "Inclination(deg)": 60.0,
        "Latitude(deg)": -17.486833974076603,
        "Longitude(deg)": -84.80019138610619,
        "Mean Anomaly(deg)": -159.915763127229,
        "RAAN(deg)": 184.99747970516157,
        "Satellite Name": "Test1 826",
        "Satellite Number": 826,
        "Semi-Major Axis(m)": 6980739.136638005,
        "Time(s)": 60
    },
    {
        "Altitude(m)": 609004.9746793697,
        "Argument of Periapsis(deg)": 0.0007293262139307483,
        "Eccentricity": 0.0,
        "Inclination(deg)": 60.0,
        "Latitude(deg)": -18.01707294749769,
        "Longitude(deg)": -84.50089340117768,
        "Mean Anomaly(deg)": -159.29565698176722,
        "RAAN(deg)": 184.9970596560218,
        "Satellite Name": "Test1 826",
        "Satellite Number": 826,
        "Semi-Major Axis(m)": 6980739.136638005,
        "Time(s)": 70
    },
    {
        "Altitude(m)": 609170.1693486797,
        "Argument of Periapsis(deg)": 0.0008335156730637124,
        "Eccentricity": 0.0,
        "Inclination(deg)": 60.0,
        "Latitude(deg)": -18.546663131783916,
        "Longitude(deg)": -84.19956468913969,
        "Mean Anomaly(deg)": -158.6755508363054,
        "RAAN(deg)": 184.99663960688204,
        "Satellite Name": "Test1 826",
        "Satellite Number": 826,
        "Semi-Major Axis(m)": 6980739.136638005,
        "Time(s)": 80
    },
    {
        "Altitude(m)": 609337.4332616817,
        "Argument of Periapsis(deg)": 0.0009377051321966765,
        "Eccentricity": 0.0,
        "Inclination(deg)": 60.0,
        "Latitude(deg)": -19.07558107389428,
        "Longitude(deg)": -83.89613101820125,
        "Mean Anomaly(deg)": -158.05544469084356,
        "RAAN(deg)": 184.9962195577423,
        "Satellite Name": "Test1 826",
        "Satellite Number": 826,
        "Semi-Major Axis(m)": 6980739.136638005,
        "Time(s)": 90
    },
    {
        "Altitude(m)": 609506.7104206978,
        "Argument of Periapsis(deg)": 0.0010418945913296407,
        "Eccentricity": 0.0,
        "Inclination(deg)": 60.0,
        "Latitude(deg)": -19.603802884721894,
        "Longitude(deg)": -83.59051636104266,
        "Mean Anomaly(deg)": -157.4353385453817,
        "RAAN(deg)": 184.9957995086026,
        "Satellite Name": "Test1 826",
        "Satellite Number": 826,
        "Semi-Major Axis(m)": 6980739.136638005,
        "Time(s)": 100
    },
    {
        "Altitude(m)": 609677.9437910822,
        "Argument of Periapsis(deg)": 0.0011460840504626045,
        "Eccentricity": 0.0,
        "Inclination(deg)": 60.0,
        "Latitude(deg)": -20.13130421982976,
        "Longitude(deg)": -83.28264385411781,
        "Mean Anomaly(deg)": -156.81523239991986,
        "RAAN(deg)": 184.9953794594628,
        "Satellite Name": "Test1 826",
        "Satellite Number": 826,
        "Semi-Major Axis(m)": 6980739.136638005,
        "Time(s)": 110
    },
    {
        "Altitude(m)": 609851.0753261857,
        "Argument of Periapsis(deg)": 0.0012502735095955685,
        "Eccentricity": 0.0,
        "Inclination(deg)": 60.0,
        "Latitude(deg)": -20.658060259557466,
        "Longitude(deg)": -82.9724352431169,
        "Mean Anomaly(deg)": -156.19512625445805,
        "RAAN(deg)": 184.99495941032308,
        "Satellite Name": "Test1 826",
        "Satellite Number": 826,
        "Semi-Major Axis(m)": 6980739.136638005,
        "Time(s)": 120
    },
    {
        "Altitude(m)": 610026.045992884,
        "Argument of Periapsis(deg)": 0.0013544629687285324,
        "Eccentricity": 0.0,
        "Inclination(deg)": 60.0,
        "Latitude(deg)": -21.184045688470075,
        "Longitude(deg)": -82.65981032745152,
        "Mean Anomaly(deg)": -155.57502010899623,
        "RAAN(deg)": 184.99453936118334,
        "Satellite Name": "Test1 826",
        "Satellite Number": 826,
        "Semi-Major Axis(m)": 6980739.136638005,
        "Time(s)": 130
    },
    {
        "Altitude(m)": 610202.7957974662,
        "Argument of Periapsis(deg)": 0.0014586524278614966,
        "Eccentricity": 0.0,
        "Inclination(deg)": 60.0,
        "Latitude(deg)": -21.70923467412212,
        "Longitude(deg)": -82.34468791662198,
        "Mean Anomaly(deg)": -154.95491396353435,
        "RAAN(deg)": 184.99411931204358,
        "Satellite Name": "Test1 826",
        "Satellite Number": 826,
        "Semi-Major Axis(m)": 6980739.136638005,
        "Time(s)": 140
    },
    {
        "Altitude(m)": 610381.2638120533,
        "Argument of Periapsis(deg)": 0.0015628418869944607,
        "Eccentricity": 0.0,
        "Inclination(deg)": 60.0,
        "Latitude(deg)": -22.233600845106057,
        "Longitude(deg)": -82.02698527271154,
        "Mean Anomaly(deg)": -154.33480781807256,
        "RAAN(deg)": 184.99369926290385,
        "Satellite Name": "Test1 826",
        "Satellite Number": 826,
        "Semi-Major Axis(m)": 6980739.136638005,
        "Time(s)": 150
    },
    {
        "Altitude(m)": 610561.3882014159,
        "Argument of Periapsis(deg)": 0.0016670313461274247,
        "Eccentricity": 0.0,
        "Inclination(deg)": 60.0,
        "Latitude(deg)": -22.757117268356936,
        "Longitude(deg)": -81.70661755187314,
        "Mean Anomaly(deg)": -153.71470167261074,
        "RAAN(deg)": 184.99327921376414,
        "Satellite Name": "Test1 826",
        "Satellite Number": 826,
        "Semi-Major Axis(m)": 6980739.136638005,
        "Time(s)": 160
    },
    {
        "Altitude(m)": 610743.1062502312,
        "Argument of Periapsis(deg)": 0.0017712208052603888,
        "Eccentricity": 0.0,
        "Inclination(deg)": 60.0,
        "Latitude(deg)": -23.27975642568071,
        "Longitude(deg)": -81.3834987576828,
        "Mean Anomaly(deg)": -153.09459552714893,
        "RAAN(deg)": 184.99285916462438,
        "Satellite Name": "Test1 826",
        "Satellite Number": 826,
        "Semi-Major Axis(m)": 6980739.136638005,
        "Time(s)": 170
    },
    {
        "Altitude(m)": 610926.3543907265,
        "Argument of Periapsis(deg)": 0.001875410264393353,
        "Eccentricity": 0.0,
        "Inclination(deg)": 60.0,
        "Latitude(deg)": -23.80149018947618,
        "Longitude(deg)": -81.05754118061121,
        "Mean Anomaly(deg)": -152.4744893816871,
        "RAAN(deg)": 184.99243911548461,
        "Satellite Name": "Test1 826",
        "Satellite Number": 826,
        "Semi-Major Axis(m)": 6980739.136638005,
        "Time(s)": 180
    },
    {
        "Altitude(m)": 611111.0682307512,
        "Argument of Periapsis(deg)": 0.0019795997235263173,
        "Eccentricity": 0.0,
        "Inclination(deg)": 60.0,
        "Latitude(deg)": -24.322289797616495,
        "Longitude(deg)": -80.72865483649426,
        "Mean Anomaly(deg)": -151.85438323622523,
        "RAAN(deg)": 184.99201906634488,
        "Satellite Name": "Test1 826",
        "Satellite Number": 826,
        "Semi-Major Axis(m)": 6980739.136638005,
        "Time(s)": 190
    }
]